[{"OBJECT_NAME":"ONEWEB-0457","OBJECT_ID":"2022-012AB","EPOCH":"2025-11-14T07:08:11.279328","MEAN_MOTION":13.1037624,"ECCENTRICITY":0.0001141,"INCLINATION":87.8799,"RA_OF_ASC_NODE":79.1147,"ARG_OF_PERICENTER":93.6457,"MEAN_ANOMALY":266.4801,"EPHEMERIS_TYPE":0,"CLASSIFICATION_TYPE":"U","NORAD_CAT_ID":51647,"ELEMENT_SET_NO":999,"REV_AT_EPOCH":18120,"BSTAR":-0.0014105073,"MEAN_MOTION_DOT":-4.8e-6,"MEAN_MOTION_DDOT":0},{"OBJECT_NAME":"ONEWEB-0458","OBJECT_ID":"2022-012AC","EPOCH":"2025-11-14T07:39:18.233856","MEAN_MOTION":13.10376205,"ECCENTRICITY":0.00014459,"INCLINATION":87.8805,"RA_OF_ASC_NODE":79.0818,"ARG_OF_PERICENTER":107.8728,"MEAN_ANOMALY":252.2557,"EPHEMERIS_TYPE":0,"CLASSIFICATION_TYPE":"U","NORAD_CAT_ID":51648,"ELEMENT_SET_NO":999,"REV_AT_EPOCH":18116,"BSTAR":0.0014220892,"MEAN_MOTION_DOT":5.09e-6,"MEAN_MOTION_DDOT":0},{"OBJECT_NAME":"ONEWEB-0461","OBJECT_ID":"2022-012AD","EPOCH":"2025-11-14T06:05:26.958336","MEAN_MOTION":13.17652227,"ECCENTRICITY":0.00016385,"INCLINATION":87.9143,"RA_OF_ASC_NODE":48.583,"ARG_OF_PERICENTER":97.9314,"MEAN_ANOMALY":262.2004,"EPHEMERIS_TYPE":0,"CLASSIFICATION_TYPE":"U","NORAD_CAT_ID":51649,"ELEMENT_SET_NO":999,"REV_AT_EPOCH":18558,"BSTAR":0.00027827056,"MEAN_MOTION_DOT":1.21e-6,"MEAN_MOTION_DDOT":0},{"OBJECT_NAME":"ONEWEB-0463","OBJECT_ID":"2022-012AE","EPOCH":"2025-11-14T07:28:03.250272","MEAN_MOTION":13.17651813,"ECCENTRICITY":0.00016667,"INCLINATION":87.9117,"RA_OF_ASC_NODE":48.6207,"ARG_OF_PERICENTER":104.2835,"MEAN_ANOMALY":255.8481,"EPHEMERIS_TYPE":0,"CLASSIFICATION_TYPE":"U","NORAD_CAT_ID":51650,"ELEMENT_SET_NO":999,"REV_AT_EPOCH":18537,"BSTAR":4.0490957e-5,"MEAN_MOTION_DOT":2.9e-7,"MEAN_MOTION_DDOT":0},{"OBJECT_NAME":"ONEWEB-0464","OBJECT_ID":"2022-012AF","EPOCH":"2025-11-14T07:34:29.779680","MEAN_MOTION":13.10374248,"ECCENTRICITY":0.00018012,"INCLINATION":87.8801,"RA_OF_ASC_NODE":79.1204,"ARG_OF_PERICENTER":103.6757,"MEAN_ANOMALY":256.4571,"EPHEMERIS_TYPE":0,"CLASSIFICATION_TYPE":"U","NORAD_CAT_ID":51651,"ELEMENT_SET_NO":999,"REV_AT_EPOCH":18118,"BSTAR":0.001163071,"MEAN_MOTION_DOT":4.19e-6,"MEAN_MOTION_DDOT":0},{"OBJECT_NAME":"ONEWEB-0468","OBJECT_ID":"2022-012AG","EPOCH":"2025-11-14T07:44:04.083936","MEAN_MOTION":13.10376105,"ECCENTRICITY":0.00016219,"INCLINATION":87.8802,"RA_OF_ASC_NODE":79.1118,"ARG_OF_PERICENTER":107.8598,"MEAN_ANOMALY":252.2707,"EPHEMERIS_TYPE":0,"CLASSIFICATION_TYPE":"U","NORAD_CAT_ID":51652,"ELEMENT_SET_NO":999,"REV_AT_EPOCH":18116,"BSTAR":0.0013966386,"MEAN_MOTION_DOT":5.0e-6,"MEAN_MOTION_DDOT":0},{"OBJECT_NAME":"ONEWEB-0473","OBJECT_ID":"2022-012AH","EPOCH":"2025-11-14T07:22:32.733120","MEAN_MOTION":13.10377649,"ECCENTRICITY":0.00015534,"INCLINATION":87.8798,"RA_OF_ASC_NODE":79.1185,"ARG_OF_PERICENTER":105.857,"MEAN_ANOMALY":254.2729,"EPHEMERIS_TYPE":0,"CLASSIFICATION_TYPE":"U","NORAD_CAT_ID":51653,"ELEMENT_SET_NO":999,"REV_AT_EPOCH":18116,"BSTAR":-0.00044435997,"MEAN_MOTION_DOT":-1.42e-6,"MEAN_MOTION_DDOT":0},{"OBJECT_NAME":"ONEWEB-0474","OBJECT_ID":"2022-012AJ","EPOCH":"2025-11-14T07:10:35.519808","MEAN_MOTION":13.10376442,"ECCENTRICITY":0.00017558,"INCLINATION":87.8809,"RA_OF_ASC_NODE":79.0847,"ARG_OF_PERICENTER":108.2743,"MEAN_ANOMALY":251.8576,"EPHEMERIS_TYPE":0,"CLASSIFICATION_TYPE":"U","NORAD_CAT_ID":51654,"ELEMENT_SET_NO":999,"REV_AT_EPOCH":18115,"BSTAR":-0.0012176613,"MEAN_MOTION_DOT":-4.12e-6,"MEAN_MOTION_DDOT":0},{"OBJECT_NAME":"ONEWEB-0475","OBJECT_ID":"2022-012AK","EPOCH":"2025-11-14T04:06:22.418784","MEAN_MOTION":13.17652091,"ECCENTRICITY":0.00020687,"INCLINATION":87.9128,"RA_OF_ASC_NODE":48.6355,"ARG_OF_PERICENTER":124.2966,"MEAN_ANOMALY":235.8361,"EPHEMERIS_TYPE":0,"CLASSIFICATION_TYPE":"U","NORAD_CAT_ID":51655,"ELEMENT_SET_NO":999,"REV_AT_EPOCH":18537,"BSTAR":0.000137577,"MEAN_MOTION_DOT":6.6e-7,"MEAN_MOTION_DDOT":0},{"OBJECT_NAME":"ONEWEB-0490","OBJECT_ID":"2022-138A","EPOCH":"2025-11-14T02:50:08.063232","MEAN_MOTION":13.19726004,"ECCENTRICITY":0.00020106,"INCLINATION":87.923,"RA_OF_ASC_NODE":347.7484,"ARG_OF_PERICENTER":97.5003,"MEAN_ANOMALY":262.6358,"EPHEMERIS_TYPE":0,"CLASSIFICATION_TYPE":"U","NORAD_CAT_ID":54113,"ELEMENT_SET_NO":999,"REV_AT_EPOCH":14846,"BSTAR":0.00018186418,"MEAN_MOTION_DOT":8.6e-7,"MEAN_MOTION_DDOT":0},{"OBJECT_NAME":"ONEWEB-0492","OBJECT_ID":"2022-138B","EPOCH":"2025-11-14T03:26:31.669440","MEAN_MOTION":13.19727014,"ECCENTRICITY":0.00020353,"INCLINATION":87.9218,"RA_OF_ASC_NODE":347.7609,"ARG_OF_PERICENTER":92.7995,"MEAN_ANOMALY":267.3371,"EPHEMERIS_TYPE":0,"CLASSIFICATION_TYPE":"U","NORAD_CAT_ID":54114,"ELEMENT_SET_NO":999,"REV_AT_EPOCH":14847,"BSTAR":2.7961531e-5,"MEAN_MOTION_DOT":2.4e-7,"MEAN_MOTION_DDOT":0},{"OBJECT_NAME":"ONEWEB-0495","OBJECT_ID":"2022-138C","EPOCH":"2025-11-14T02:54:42.240672","MEAN_MOTION":13.19725618,"ECCENTRICITY":0.00024944,"INCLINATION":87.9216,"RA_OF_ASC_NODE":347.7706,"ARG_OF_PERICENTER":103.7422,"MEAN_ANOMALY":256.3989,"EPHEMERIS_TYPE":0,"CLASSIFICATION_TYPE":"U","NORAD_CAT_ID":54115,"ELEMENT_SET_NO":999,"REV_AT_EPOCH":14845,"BSTAR":0.00016218256,"MEAN_MOTION_DOT":7.8e-7,"MEAN_MOTION_DDOT":0},{"OBJECT_NAME":"ONEWEB-0497","OBJECT_ID":"2022-138D","EPOCH":"2025-11-14T01:23:43.058400","MEAN_MOTION":13.19726743,"ECCENTRICITY":0.00019374,"INCLINATION":87.9226,"RA_OF_ASC_NODE":347.7673,"ARG_OF_PERICENTER":96.151,"MEAN_ANOMALY":263.9844,"EPHEMERIS_TYPE":0,"CLASSIFICATION_TYPE":"U","NORAD_CAT_ID":54116,"ELEMENT_SET_NO":999,"REV_AT_EPOCH":14843,"BSTAR":0.00025246735,"MEAN_MOTION_DOT":1.14e-6,"MEAN_MOTION_DDOT":0},{"OBJECT_NAME":"ONEWEB-0499","OBJECT_ID":"2022-138E","EPOCH":"2025-11-14T02:49:01.389216","MEAN_MOTION":13.19726337,"ECCENTRICITY":0.00018829,"INCLINATION":87.9222,"RA_OF_ASC_NODE":347.769,"ARG_OF_PERICENTER":102.7638,"MEAN_ANOMALY":257.3705,"EPHEMERIS_TYPE":0,"CLASSIFICATION_TYPE":"U","NORAD_CAT_ID":54117,"ELEMENT_SET_NO":999,"REV_AT_EPOCH":14845,"BSTAR":0.00013551427,"MEAN_MOTION_DOT":6.7e-7,"MEAN_MOTION_DDOT":0},{"OBJECT_NAME":"ONEWEB-0500","OBJECT_ID":"2022-138F","EPOCH":"2025-11-14T02:52:25.466016","MEAN_MOTION":13.19726116,"ECCENTRICITY":0.00018406,"INCLINATION":87.9224,"RA_OF_ASC_NODE":347.7559,"ARG_OF_PERICENTER":92.4237,"MEAN_ANOMALY":267.7106,"EPHEMERIS_TYPE":0,"CLASSIFICATION_TYPE":"U","NORAD_CAT_ID":54118,"ELEMENT_SET_NO":999,"REV_AT_EPOCH":14846,"BSTAR":4.9941109e-5,"MEAN_MOTION_DOT":3.3e-7,"MEAN_MOTION_DDOT":0},{"OBJECT_NAME":"ONEWEB-0501","OBJECT_ID":"2022-138G","EPOCH":"2025-11-14T03:35:38.282496","MEAN_MOTION":13.19726919,"ECCENTRICITY":0.00022021,"INCLINATION":87.923,"RA_OF_ASC_NODE":347.7459,"ARG_OF_PERICENTER":101.4603,"MEAN_ANOMALY":258.6778,"EPHEMERIS_TYPE":0,"CLASSIFICATION_TYPE":"U","NORAD_CAT_ID":54119,"ELEMENT_SET_NO":999,"REV_AT_EPOCH":14844,"BSTAR":-0.00011373391,"MEAN_MOTION_DOT":-3.3e-7,"MEAN_MOTION_DDOT":0},{"OBJECT_NAME":"ONEWEB-0502","OBJECT_ID":"2022-138H","EPOCH":"2025-11-14T01:25:58.864512","MEAN_MOTION":13.19728168,"ECCENTRICITY":0.00019372,"INCLINATION":87.9229,"RA_OF_ASC_NODE":347.7459,"ARG_OF_PERICENTER":103.111,"MEAN_ANOMALY":257.0239,"EPHEMERIS_TYPE":0,"CLASSIFICATION_TYPE":"U","NORAD_CAT_ID":54120,"ELEMENT_SET_NO":999,"REV_AT_EPOCH":14845,"BSTAR":0.0001264324,"MEAN_MOTION_DOT":6.4e-7,"MEAN_MOTION_DDOT":0},{"OBJECT_NAME":"ONEWEB-0503","OBJECT_ID":"2022-138J","EPOCH":"2025-11-14T01:10:04.146240","MEAN_MOTION":13.19726278,"ECCENTRICITY":0.0001607,"INCLINATION":87.9231,"RA_OF_ASC_NODE":347.7524,"ARG_OF_PERICENTER":101.5736,"MEAN_ANOMALY":258.5577,"EPHEMERIS_TYPE":0,"CLASSIFICATION_TYPE":"U","NORAD_CAT_ID":54121,"ELEMENT_SET_NO":999,"REV_AT_EPOCH":14844,"BSTAR":0.00031102381,"MEAN_MOTION_DOT":1.37e-6,"MEAN_MOTION_DDOT":0},{"OBJECT_NAME":"ONEWEB-0504","OBJECT_ID":"2022-138K","EPOCH":"2025-11-14T02:41:03.341472","MEAN_MOTION":13.19727161,"ECCENTRICITY":0.00019494,"INCLINATION":87.9218,"RA_OF_ASC_NODE":347.7559,"ARG_OF_PERICENTER":105.7403,"MEAN_ANOMALY":254.3945,"EPHEMERIS_TYPE":0,"CLASSIFICATION_TYPE":"U","NORAD_CAT_ID":54122,"ELEMENT_SET_NO":999,"REV_AT_EPOCH":14846,"BSTAR":1.5876638e-5,"MEAN_MOTION_DOT":1.9e-7,"MEAN_MOTION_DDOT":0},{"OBJECT_NAME":"ONEWEB-0505","OBJECT_ID":"2022-138L","EPOCH":"2025-11-14T02:36:30.141216","MEAN_MOTION":13.1972638,"ECCENTRICITY":0.00022539,"INCLINATION":87.9231,"RA_OF_ASC_NODE":347.7465,"ARG_OF_PERICENTER":106.1456,"MEAN_ANOMALY":253.9925,"EPHEMERIS_TYPE":0,"CLASSIFICATION_TYPE":"U","NORAD_CAT_ID":54123,"ELEMENT_SET_NO":999,"REV_AT_EPOCH":14844,"BSTAR":0.00027927834,"MEAN_MOTION_DOT":1.25e-6,"MEAN_MOTION_DDOT":0},{"OBJECT_NAME":"ONEWEB-0506","OBJECT_ID":"2022-138M","EPOCH":"2025-11-14T03:49:16.873248","MEAN_MOTION":13.19726756,"ECCENTRICITY":0.00019486,"INCLINATION":87.9226,"RA_OF_ASC_NODE":347.7331,"ARG_OF_PERICENTER":99.627,"MEAN_ANOMALY":260.5083,"EPHEMERIS_TYPE":0,"CLASSIFICATION_TYPE":"U","NORAD_CAT_ID":54124,"ELEMENT_SET_NO":999,"REV_AT_EPOCH":14844,"BSTAR":-7.8310169e-5,"MEAN_MOTION_DOT":-1.8e-7,"MEAN_MOTION_DDOT":0},{"OBJECT_NAME":"ONEWEB-0507","OBJECT_ID":"2022-138N","EPOCH":"2025-11-14T02:29:40.290720","MEAN_MOTION":13.19726783,"ECCENTRICITY":0.00020502,"INCLINATION":87.9207,"RA_OF_ASC_NODE":347.7843,"ARG_OF_PERICENTER":97.7505,"MEAN_ANOMALY":262.386,"EPHEMERIS_TYPE":0,"CLASSIFICATION_TYPE":"U","NORAD_CAT_ID":54125,"ELEMENT_SET_NO":999,"REV_AT_EPOCH":14848,"BSTAR":0.00022855575,"MEAN_MOTION_DOT":1.04e-6,"MEAN_MOTION_DDOT":0},{"OBJECT_NAME":"ONEWEB-0508","OBJECT_ID":"2022-138P","EPOCH":"2025-11-14T07:52:38.243424","MEAN_MOTION":13.19728757,"ECCENTRICITY":0.00021921,"INCLINATION":87.9216,"RA_OF_ASC_NODE":347.7295,"ARG_OF_PERICENTER":101.6312,"MEAN_ANOMALY":258.5067,"EPHEMERIS_TYPE":0,"CLASSIFICATION_TYPE":"U","NORAD_CAT_ID":54126,"ELEMENT_SET_NO":999,"REV_AT_EPOCH":14849,"BSTAR":0.00067185475,"MEAN_MOTION_DOT":2.82e-6,"MEAN_MOTION_DDOT":0}]
